#dP2023  7  2  0  0  0.00000000      96 __u+U ITR00 FIT  IAC
## 2269      0.00000000   900.00000000 60127 0.0000000000000
+  117   C06C07C08C09C10C11C13C14C16C19C20C21C22C23C24C25C26
+        C27C28C29C30C32C33C34C35C36C37C38C39C40C41C42C43C44
+        C45C46E02E03E04E05E07E08E09E10E11E12E13E14E15E18E19
+        E21E24E25E26E27E30E31E33E34E36G01G02G03G04G05G06G07
+        G08G09G10G11G12G13G14G15G16G17G18G19G20G21G22G23G24
+        G25G26G27G28G29G30G31G32J02J04R01R02R03R04R05R07R08
+        R09R11R12R13R14R15R16R17R18R19R20R21R22R24R25  0  0
++         0  0  0  0  0  0  0  0  0  0  0  0  0  0  0  0  0
++         0  0  0  0  0  0  0  0  0  0  0  0  0  0  0  0  0
++         0  0  0  0  0  0  0  0  0  0  0  0  0  0  0  0  0
++         0  0  0  0  0  0  0  0  0  0  0  0  0  0  0  0  0
++         0  0  0  0  0  0  0  0  0  0  0  0  0  0  0  0  0
++         0  0  0  0  0  0  0  0  0  0  0  0  0  0  0  0  0
++         0  0  0  0  0  0  0  0  0  0  0  0  0  0  0  0  0
%c M  cc GPS ccc cccc cccc cccc cccc ccccc ccccc ccccc ccccc
%c cc cc ccc ccc cccc cccc cccc cccc ccccc ccccc ccccc ccccc
%f  0.0000000  0.000000000  0.00000000000  0.000000000000000
%f  0.0000000  0.000000000  0.00000000000  0.000000000000000
%i    0    0    0    0      0      0      0      0         0
%i    0    0    0    0      0      0      0      0         0
/* INFORMATION & ANALYSIS CENTER (IAC)      ULTRA-RAPID DATA
/* S/V CLOCKS ARE ALIGNED TO GNSS TIME                      
/* G:C1WC2W R:C1PC2P E:C1XC5X C:C2IC6I J:C1CC2S             
/* PCV:IGS20_2247 OL/AL:FES2004  NONE     YN ORB:CoN CLK:CoN
*  2023 07 02 18  0  0.00000000
PC06 -17618.479048  26497.594537  27548.259423   -167.298769
PC07  -8003.698532  41161.373865   5469.747142   -262.100090
PC08   1599.968500  25675.506708 -33357.917683    441.376861
PC09  -6581.209150  26056.692763  32778.776159    464.148203
PC10  -3700.990930  42301.578520    624.531172   -102.867009
PC11  -6076.839462  18544.018746 -19897.938313    705.262214
PC13   7670.761582  28975.955241 -29386.378407    307.878094
PC14    398.709555  27932.870124   -511.354464    501.594697
PC16 -18043.507536  26260.246172  27714.643797     21.260127
PC19  -6549.916995 -25682.535454  -8664.421223   -932.614341
PC20   4830.111811 -26251.327880   8088.027274    463.447574
PC21 -14246.472085  10978.225214 -21331.678937   -929.816736
PC22 -14765.468376 -10244.354468 -21343.500248   -414.121901
PC23  24870.462286  12598.271189  -1206.936581   -960.180757
PC24  -6718.257243  14924.654984  22597.189369    128.745179
PC25  14214.020203  19098.381169  14537.866276    159.653575
PC26 -21609.104872   2957.066402  17415.532292   -143.104728
PC27  24832.732280 -12397.207516  -2967.536250    163.811964
PC28  21856.210349   1011.914545 -17319.306940    121.936724
PC29  -5338.030091 -15406.304743  22636.554095    141.958757
PC30  14166.173640 -20151.481416  13119.431603     -1.779911
PC32  14216.356596 -10937.169812  21386.576903   -542.711174
PC33   6678.786918  25711.591201   8588.156445   -905.599618
PC34 -12928.808711  20248.058604 -14200.620452    206.092068
PC35 -21635.597075   -683.030260  17578.712308    596.446123
PC36 -13096.238346 -19481.079638 -15065.231811   -350.780270
PC37  22227.468594  -1640.740025 -16762.141173   -789.444032
PC38  -6918.111545  23047.081435 -34567.839901     89.005443
PC39 -23560.911593  26570.899627  22575.673774     -3.602437
PC40 -14002.355192  38983.915972   8562.570118    -28.094704
PC41  14707.663855  10976.455124  21078.111896   -909.762078
PC42  -5611.664065  25713.049935  -9282.896841   -626.856154
PC43   4508.930643  15973.866739 -22444.756037     28.907368
PC44 -24370.847266  13205.044267   3087.303536    156.407880
PC45 -24997.848497 -12308.472514   1729.770973   -117.628143
PC46   5103.451746 -15586.500240 -22575.702563    -65.899583
PE02  15141.282948  -7197.174118 -24393.832648     47.469485
PE03  20354.203000 -17741.117978  12113.359178    -32.144877
PE04 -10936.985995  26838.788093   6043.760625   -157.872587
PE05  17983.062074   1893.809581  23440.931870     -4.093297
PE07  -4859.667026 -20469.284595 -20808.035495    -57.040000
PE08  11188.489920 -26793.826175  -5707.764436   -108.222377
PE09   4643.193071  20536.821066  20818.049847    -70.748350
PE10   2852.746909  15959.388521 -24779.463911   -545.573903
PE11  14743.876717  14066.066897 -21491.747487   2382.437531
PE12  -8410.469757  15369.613628 -23866.473834   -602.795004
PE13 -13988.862209 -14189.239248  21882.075198    -19.313241
PE14  21022.695019  -8826.128582 -14216.454064    270.904466
PE15   8819.158443 -15232.443571  23795.419302    -34.002110
PE18 -19470.514159  23601.502497   1831.655279    250.128614
PE19 -20763.589367  15544.436273 -14253.594645  -2165.952278
PE21 -20548.626491 -12409.177919  17320.401199   -538.412423
PE24  13842.717309  26141.141323    802.701275   -187.585075
PE25  20541.241026  12753.305361 -17066.789847   -607.689410
PE26 -28543.593385  -4479.874967   6436.740331    151.381686
PE27 -14341.476461 -25896.423574   -152.465506    -89.328292
PE30    777.061226 -23745.457809 -17666.432517   -303.330461
PE31   -258.482240  23981.639324  17360.487757      0.451536
PE33 -26216.616699   7279.329175 -11654.914797   -442.439048
PE34  26127.716660  -7395.062469  11758.457953    -53.960126
PE36  28301.901551   4864.012819  -7198.010949    -80.038857
PG01  12767.667275  13552.676914 -19418.682290    174.964814
PG02   6575.351518  14213.592554 -20970.159461   -580.114584
PG03  12878.000337  23274.705644   1030.390222   -248.444919
PG04   5862.860373  16245.990364  20157.044032     84.568453
PG05  -2296.481295 -22562.393126  13552.344870   -133.364573
PG06  23739.628704  -5740.016318  10613.253271    581.262457
PG07  24687.104436   7005.563905   8227.352027    136.278855
PG08  -3198.111600  22890.577536 -12799.607278   -130.218088
PG09  13707.174925   6819.838273  21629.792059   -121.821453
PG10 -15841.402468    412.241130 -21192.911032    -43.570208
PG11  11072.260996 -13073.848015  20290.747093   -259.398387
PG12  -9202.251257 -24888.125497  -2170.461291   -395.846913
PG13  12028.199927 -22318.352914  -7723.494620    541.898291
PG14  17290.781663   2842.839374 -19986.166249    109.655582
PG15   -461.285810 -23071.754305 -13388.335070     54.322495
PG16  -3493.254455  20481.462908  15972.660557   -485.238596
PG17  19504.545747  -9678.412069 -14859.526969    720.048927
PG18 -25713.090855  -4949.556123   4945.134231   -330.487397
PG19  19902.865956 -14711.715626  -9407.044036    338.532837
PG20   4904.778801 -17052.010159  19852.177532    424.824762
PG21   3942.412964  14698.890833 -21291.212932    152.575403
PG22 -18511.972013  17932.020704  -5607.662842    506.896256
PG23 -18396.642152 -11936.911426 -15093.486153     39.061591
PG24  -8648.342118 -14912.831000 -20657.673329   -244.763812
PG25 -16995.654727 -18484.530344   8741.479438    453.623647
PG26 -11255.849314  11411.111442  21026.490228    237.596617
PG27 -12301.944431  23146.672733  -2793.304860      4.862337
PG28 -24488.549729   5743.534041   8506.149712     83.490414
PG29 -11624.523006  -9253.182988  21961.909349   -604.502686
PG30  26642.211183     84.598611  -1712.853667   -507.081364
PG31 -16970.143151  11107.823680  17188.001341   -219.317067
PG32 -18925.184832  12338.066293 -13625.414387   -512.921742
PJ02 -26274.037699  22983.763672  28764.147996     -1.001118
PJ04 -19509.201180  31248.543279 -15505.019554     96.190864
PR01   9885.518990   6977.868067  22459.910382     60.594491
PR02  11220.855688 -12671.829299  19153.883184    -22.639886
PR03   6106.131266 -24364.328113   4658.826442     80.798901
PR04  -1975.486504 -22345.604832 -12123.480057    193.510625
PR05  -9098.643007  -8319.701538 -22321.707170    115.136757
PR07  -5707.812929  24553.166044  -3698.032245     59.289838
PR08   2344.695364  22186.994746  12398.761859    -71.504229
PR09 -15395.982937    893.571850  20314.692847    129.015990
PR11  13442.477604  17946.986561  12192.340457    -94.326482
PR12  21047.827356  12731.846409  -6698.373561     28.686962
PR13  16533.723403   1093.581407 -19402.282666    -36.677169
PR14    825.309694 -12937.239034 -21947.082832     24.884731
PR15 -14154.217604 -18136.634814 -10984.280826     88.138559
PR16 -21105.326176 -12744.631477   6483.596809     16.240896
PR17  13238.392640 -13360.430418  17209.172991     -3.717751
PR18  -3506.142340  -9868.243717  23266.544046     89.577637
PR19 -17599.716266  -2704.103474  18260.453391   -238.409532
PR20 -24131.896545   8192.403272   -453.101036    -95.849658
PR21 -12222.691939  13208.118473 -18098.338416    -19.719038
PR22   4385.472523   9991.315120 -23035.214387     88.462208
PR24  23705.949177  -9329.091927   1092.905781    -14.734378
PR25 -13897.588205  12972.849863 -17018.567455     57.418733
EOF
